{
  "norad_id": 68898,
  "name": "STARLINK-37386",
  "history": [
    {
      "epoch": "2026-05-04T18:00:02.000160Z",
      "apogee_km": 282.5852933094302,
      "perigee_km": 280.58471281970924,
      "latitude_deg": -47.24645144429674,
      "longitude_deg": -0.8745213313050592,
      "height_km": 300.6863510129128,
      "semi_major_axis_km": 6659.722003064569,
      "eccentricity": 0.0001502,
      "inclination_deg": 97.2872,
      "raan_deg": 319.674,
      "arg_perigee_deg": 92.572,
      "mean_anomaly_deg": 134.8904,
      "mean_motion_rev_day": 15.97418136
    }
  ]
}