{"generatedAt":"2026-05-05T08:19:47.084492Z","satellites":[{"name":"STARLINK-37386","tle1":"1 68898U 26097D   26124.75002315 -.02349791  15763-2 -54173-2 0  9994","tle2":"2 68898  97.2872 319.6740 0001502  92.5720 134.8904 15.97418136  1947"}]}